CZ-4B R/B               
1 43656U 18081B   22230.41339306  .00000103  00000+0  49277-4 0  9996
2 43656  99.4059   9.2668 0207780 326.4233  32.3920 14.30592980199212
CUBEBEL-1 (BSUSAT-1)    
1 43666U 18083E   22231.17349154  .00007263  00000+0  30065-3 0  9993
2 43666  97.4179 259.1753 0014686 110.4484 323.8226 15.24137085211032
CHANGSHAGAOXIN (TY 4-01)
1 43669U 18083H   22231.15608076  .00006714  00000+0  29213-3 0  9998
2 43669  97.4126 254.9423 0011286 108.4696 336.7904 15.22517427210843
TEN-KOH                 
1 43677U 18084G   22231.15365701  .00001043  00000+0  11058-3 0  9991
2 43677  97.9721   1.8059 0017067  67.0010 293.3006 14.91232279207026
DIWATA-2B               
1 43678U 18084H   22231.28065904  .00001079  00000+0  11141-3 0  9990
2 43678  97.9796   5.3141 0011326  79.2285 281.0214 14.92262321207220
STARS-AO                
1 43679U 18084J   22230.35664220  .00001902  00000+0  18491-3 0  9994
2 43679  97.9826   6.4548 0010267  86.1927 274.0466 14.93780026207185
AUTCUBE 2               
1 43681U 18084K   22230.33320588  .00001930  00000+0  19074-3 0  9990
2 43681  97.9787   4.9886 0010671  81.8804 278.3625 14.93107941207089
IRVINE01                
1 43693U 18088D   22230.14147293  .00046278  00000+0  10940-2 0  9992
2 43693  85.0251 268.8968 0009965 220.8645 139.1862 15.41585943209715
ES'HAIL 2               
1 43700U 18090A   22230.86131262  .00000137  00000+0  00000+0 0  9999
2 43700   0.0125 108.9879 0002049  83.3768 110.6545  1.00273027 13655
FACSAT-1                
1 43721U 18096C   22231.19128888  .00017004  00000+0  45191-3 0  9990
2 43721  97.3479 311.0263 0013275 181.6581 263.1000 15.38231720207612
CENTAURI-2              
1 43722U 18096D   22231.22284525  .00031278  00000+0  72632-3 0  9995
2 43722  97.3526 313.4146 0012232 178.9148 181.2128 15.42231053207741
3CAT-1                  
1 43728U 18096K   22231.22539766  .00030607  00000+0  71107-3 0  9992
2 43728  97.3538 314.1823 0012213 180.1001 180.0246 15.42222229207789
INNOSAT-2               
1 43738U 18096V   22231.14541403  .00076654  00000+0  11264-2 0  9994
2 43738  97.3629 321.5383 0012355 171.0436 239.3230 15.55141370208235
REAKTOR HELLO WORLD     
1 43743U 18096AA  22230.21513405  .00015912  00000+0  46590-3 0  9999
2 43743  97.3500 309.8682 0014410 191.4102 168.6817 15.35211444207434
ELYSIUM STAR 2 & LFF    
1 43760U 18099C   22230.88404583  .00006526  00000+0  53996-3 0  9999
2 43760  97.6280 298.0857 0015049  57.6170 302.6507 14.99142181202476
2018-099D               
1 43761U 18099D   22230.74442356  .00001633  00000+0  15034-3 0  9990
2 43761  97.6183 295.7998 0015641  64.4706 295.8111 14.96006750202335
AISTECHSAT 2            
1 43768U 18099L   22231.18124473  .00001914  00000+0  17567-3 0  9998
2 43768  97.6126 294.7087 0012415  62.7218 297.5267 14.95946559202062
