[{"OBJECT_NAME":"CZ-4B R\/B","OBJECT_ID":"2018-081B","EPOCH":"2022-08-18T09:55:17.160384","MEAN_MOTION":14.3059298,"ECCENTRICITY":0.020778,"INCLINATION":99.4059,"RA_OF_ASC_NODE":9.2668,"ARG_OF_PERICENTER":326.4233,"MEAN_ANOMALY":32.392,"EPHEMERIS_TYPE":0,"CLASSIFICATION_TYPE":"U","NORAD_CAT_ID":43656,"ELEMENT_SET_NO":999,"REV_AT_EPOCH":19921,"BSTAR":4.9277e-5,"MEAN_MOTION_DOT":1.03e-6,"MEAN_MOTION_DDOT":0},{"OBJECT_NAME":"CUBEBEL-1 (BSUSAT-1)","OBJECT_ID":"2018-083E","EPOCH":"2022-08-19T04:09:49.669056","MEAN_MOTION":15.24137085,"ECCENTRICITY":0.0014686,"INCLINATION":97.4179,"RA_OF_ASC_NODE":259.1753,"ARG_OF_PERICENTER":110.4484,"MEAN_ANOMALY":323.8226,"EPHEMERIS_TYPE":0,"CLASSIFICATION_TYPE":"U","NORAD_CAT_ID":43666,"ELEMENT_SET_NO":999,"REV_AT_EPOCH":21103,"BSTAR":0.00030065,"MEAN_MOTION_DOT":7.263e-5,"MEAN_MOTION_DDOT":0},{"OBJECT_NAME":"CHANGSHAGAOXIN (TY 4-01)","OBJECT_ID":"2018-083H","EPOCH":"2022-08-19T03:44:45.377664","MEAN_MOTION":15.22517427,"ECCENTRICITY":0.0011286,"INCLINATION":97.4126,"RA_OF_ASC_NODE":254.9423,"ARG_OF_PERICENTER":108.4696,"MEAN_ANOMALY":336.7904,"EPHEMERIS_TYPE":0,"CLASSIFICATION_TYPE":"U","NORAD_CAT_ID":43669,"ELEMENT_SET_NO":999,"REV_AT_EPOCH":21084,"BSTAR":0.00029213,"MEAN_MOTION_DOT":6.714e-5,"MEAN_MOTION_DDOT":0},{"OBJECT_NAME":"TEN-KOH","OBJECT_ID":"2018-084G","EPOCH":"2022-08-19T03:41:15.965664","MEAN_MOTION":14.91232279,"ECCENTRICITY":0.0017067,"INCLINATION":97.9721,"RA_OF_ASC_NODE":1.8059,"ARG_OF_PERICENTER":67.001,"MEAN_ANOMALY":293.3006,"EPHEMERIS_TYPE":0,"CLASSIFICATION_TYPE":"U","NORAD_CAT_ID":43677,"ELEMENT_SET_NO":999,"REV_AT_EPOCH":20702,"BSTAR":0.00011058,"MEAN_MOTION_DOT":1.043e-5,"MEAN_MOTION_DDOT":0},{"OBJECT_NAME":"DIWATA-2B","OBJECT_ID":"2018-084H","EPOCH":"2022-08-19T06:44:08.941056","MEAN_MOTION":14.92262321,"ECCENTRICITY":0.0011326,"INCLINATION":97.9796,"RA_OF_ASC_NODE":5.3141,"ARG_OF_PERICENTER":79.2285,"MEAN_ANOMALY":281.0214,"EPHEMERIS_TYPE":0,"CLASSIFICATION_TYPE":"U","NORAD_CAT_ID":43678,"ELEMENT_SET_NO":999,"REV_AT_EPOCH":20722,"BSTAR":0.00011141,"MEAN_MOTION_DOT":1.079e-5,"MEAN_MOTION_DDOT":0},{"OBJECT_NAME":"STARS-AO","OBJECT_ID":"2018-084J","EPOCH":"2022-08-18T08:33:33.886080","MEAN_MOTION":14.93780026,"ECCENTRICITY":0.0010267,"INCLINATION":97.9826,"RA_OF_ASC_NODE":6.4548,"ARG_OF_PERICENTER":86.1927,"MEAN_ANOMALY":274.0466,"EPHEMERIS_TYPE":0,"CLASSIFICATION_TYPE":"U","NORAD_CAT_ID":43679,"ELEMENT_SET_NO":999,"REV_AT_EPOCH":20718,"BSTAR":0.00018491,"MEAN_MOTION_DOT":1.902e-5,"MEAN_MOTION_DDOT":0},{"OBJECT_NAME":"AUTCUBE 2","OBJECT_ID":"2018-084K","EPOCH":"2022-08-18T07:59:48.988032","MEAN_MOTION":14.93107941,"ECCENTRICITY":0.0010671,"INCLINATION":97.9787,"RA_OF_ASC_NODE":4.9886,"ARG_OF_PERICENTER":81.8804,"MEAN_ANOMALY":278.3625,"EPHEMERIS_TYPE":0,"CLASSIFICATION_TYPE":"U","NORAD_CAT_ID":43681,"ELEMENT_SET_NO":999,"REV_AT_EPOCH":20708,"BSTAR":0.00019074,"MEAN_MOTION_DOT":1.93e-5,"MEAN_MOTION_DDOT":0},{"OBJECT_NAME":"IRVINE01","OBJECT_ID":"2018-088D","EPOCH":"2022-08-18T03:23:43.261152","MEAN_MOTION":15.41585943,"ECCENTRICITY":0.0009965,"INCLINATION":85.0251,"RA_OF_ASC_NODE":268.8968,"ARG_OF_PERICENTER":220.8645,"MEAN_ANOMALY":139.1862,"EPHEMERIS_TYPE":0,"CLASSIFICATION_TYPE":"U","NORAD_CAT_ID":43693,"ELEMENT_SET_NO":999,"REV_AT_EPOCH":20971,"BSTAR":0.001094,"MEAN_MOTION_DOT":0.00046278,"MEAN_MOTION_DDOT":0},{"OBJECT_NAME":"ES'HAIL 2","OBJECT_ID":"2018-090A","EPOCH":"2022-08-18T20:40:17.410368","MEAN_MOTION":1.00273027,"ECCENTRICITY":0.0002049,"INCLINATION":0.0125,"RA_OF_ASC_NODE":108.9879,"ARG_OF_PERICENTER":83.3768,"MEAN_ANOMALY":110.6545,"EPHEMERIS_TYPE":0,"CLASSIFICATION_TYPE":"U","NORAD_CAT_ID":43700,"ELEMENT_SET_NO":999,"REV_AT_EPOCH":1365,"BSTAR":0,"MEAN_MOTION_DOT":1.37e-6,"MEAN_MOTION_DDOT":0},{"OBJECT_NAME":"FACSAT-1","OBJECT_ID":"2018-096C","EPOCH":"2022-08-19T04:35:27.359232","MEAN_MOTION":15.3823172,"ECCENTRICITY":0.0013275,"INCLINATION":97.3479,"RA_OF_ASC_NODE":311.0263,"ARG_OF_PERICENTER":181.6581,"MEAN_ANOMALY":263.1,"EPHEMERIS_TYPE":0,"CLASSIFICATION_TYPE":"U","NORAD_CAT_ID":43721,"ELEMENT_SET_NO":999,"REV_AT_EPOCH":20761,"BSTAR":0.00045191,"MEAN_MOTION_DOT":0.00017004,"MEAN_MOTION_DDOT":0},{"OBJECT_NAME":"CENTAURI-2","OBJECT_ID":"2018-096D","EPOCH":"2022-08-19T05:20:53.829600","MEAN_MOTION":15.42231053,"ECCENTRICITY":0.0012232,"INCLINATION":97.3526,"RA_OF_ASC_NODE":313.4146,"ARG_OF_PERICENTER":178.9148,"MEAN_ANOMALY":181.2128,"EPHEMERIS_TYPE":0,"CLASSIFICATION_TYPE":"U","NORAD_CAT_ID":43722,"ELEMENT_SET_NO":999,"REV_AT_EPOCH":20774,"BSTAR":0.00072632,"MEAN_MOTION_DOT":0.00031278,"MEAN_MOTION_DDOT":0},{"OBJECT_NAME":"3CAT-1","OBJECT_ID":"2018-096K","EPOCH":"2022-08-19T05:24:34.357824","MEAN_MOTION":15.42222229,"ECCENTRICITY":0.0012213,"INCLINATION":97.3538,"RA_OF_ASC_NODE":314.1823,"ARG_OF_PERICENTER":180.1001,"MEAN_ANOMALY":180.0246,"EPHEMERIS_TYPE":0,"CLASSIFICATION_TYPE":"U","NORAD_CAT_ID":43728,"ELEMENT_SET_NO":999,"REV_AT_EPOCH":20778,"BSTAR":0.00071107,"MEAN_MOTION_DOT":0.00030607,"MEAN_MOTION_DDOT":0},{"OBJECT_NAME":"INNOSAT-2","OBJECT_ID":"2018-096V","EPOCH":"2022-08-19T03:29:23.772192","MEAN_MOTION":15.5514137,"ECCENTRICITY":0.0012355,"INCLINATION":97.3629,"RA_OF_ASC_NODE":321.5383,"ARG_OF_PERICENTER":171.0436,"MEAN_ANOMALY":239.323,"EPHEMERIS_TYPE":0,"CLASSIFICATION_TYPE":"U","NORAD_CAT_ID":43738,"ELEMENT_SET_NO":999,"REV_AT_EPOCH":20823,"BSTAR":0.0011264,"MEAN_MOTION_DOT":0.00076654,"MEAN_MOTION_DDOT":0},{"OBJECT_NAME":"REAKTOR HELLO WORLD","OBJECT_ID":"2018-096AA","EPOCH":"2022-08-18T05:09:47.581920","MEAN_MOTION":15.35211444,"ECCENTRICITY":0.001441,"INCLINATION":97.35,"RA_OF_ASC_NODE":309.8682,"ARG_OF_PERICENTER":191.4102,"MEAN_ANOMALY":168.6817,"EPHEMERIS_TYPE":0,"CLASSIFICATION_TYPE":"U","NORAD_CAT_ID":43743,"ELEMENT_SET_NO":999,"REV_AT_EPOCH":20743,"BSTAR":0.0004659,"MEAN_MOTION_DOT":0.00015912,"MEAN_MOTION_DDOT":0},{"OBJECT_NAME":"ELYSIUM STAR 2 & LFF","OBJECT_ID":"2018-099C","EPOCH":"2022-08-18T21:13:01.559712","MEAN_MOTION":14.99142181,"ECCENTRICITY":0.0015049,"INCLINATION":97.628,"RA_OF_ASC_NODE":298.0857,"ARG_OF_PERICENTER":57.617,"MEAN_ANOMALY":302.6507,"EPHEMERIS_TYPE":0,"CLASSIFICATION_TYPE":"U","NORAD_CAT_ID":43760,"ELEMENT_SET_NO":999,"REV_AT_EPOCH":20247,"BSTAR":0.00053996,"MEAN_MOTION_DOT":6.526e-5,"MEAN_MOTION_DDOT":0},{"OBJECT_NAME":"2018-099D","OBJECT_ID":"2018-099D","EPOCH":"2022-08-18T17:51:58.195584","MEAN_MOTION":14.9600675,"ECCENTRICITY":0.0015641,"INCLINATION":97.6183,"RA_OF_ASC_NODE":295.7998,"ARG_OF_PERICENTER":64.4706,"MEAN_ANOMALY":295.8111,"EPHEMERIS_TYPE":0,"CLASSIFICATION_TYPE":"U","NORAD_CAT_ID":43761,"ELEMENT_SET_NO":999,"REV_AT_EPOCH":20233,"BSTAR":0.00015034,"MEAN_MOTION_DOT":1.633e-5,"MEAN_MOTION_DDOT":0},{"OBJECT_NAME":"AISTECHSAT 2","OBJECT_ID":"2018-099L","EPOCH":"2022-08-19T04:20:59.544672","MEAN_MOTION":14.95946559,"ECCENTRICITY":0.0012415,"INCLINATION":97.6126,"RA_OF_ASC_NODE":294.7087,"ARG_OF_PERICENTER":62.7218,"MEAN_ANOMALY":297.5267,"EPHEMERIS_TYPE":0,"CLASSIFICATION_TYPE":"U","NORAD_CAT_ID":43768,"ELEMENT_SET_NO":999,"REV_AT_EPOCH":20206,"BSTAR":0.00017567,"MEAN_MOTION_DOT":1.914e-5,"MEAN_MOTION_DDOT":0}]